"Ariane Rk" "Sol/Earth"
{
	Mesh "satellite.3ds"
	Radius 0.005

	EllipticalOrbit
	{
		Period          0.44885737
		SemiMajorAxis  24768.735025405178
		Eccentricity    0.7237642
		Inclination     7.1374
		AscendingNode   137.5026
		ArgOfPericenter 231.3218
		MeanAnomaly     38.4429
		Epoch           2452346.30501762
	}
        Albedo              10
}

"94038F" "Sol/Earth"
{
	Mesh "satellite.3ds"
	Radius 0.005

	EllipticalOrbit
	{
		Period          0.3989941
		SemiMajorAxis  22898.61573975781
		Eccentricity    0.7130018
		Inclination     47.1807
		AscendingNode   178.8911
		ArgOfPericenter 69.4294
		MeanAnomaly     349.8373
		Epoch           2452344.66393487
	}
        Albedo              10
}

"Ariane Rk" "Sol/Earth"
{
	Mesh "satellite.3ds"
	Radius 0.005

	EllipticalOrbit
	{
		Period          0.44587702
		SemiMajorAxis  24658.97266037861
		Eccentricity    0.7268271
		Inclination     7.9414
		AscendingNode   41.9575
		ArgOfPericenter 231.0855
		MeanAnomaly     38.3265
		Epoch           2452338.69528091
	}
        Albedo              10
}

"94048A" "Sol/Earth"
{
	Mesh "satellite.3ds"
	Radius 0.005

	EllipticalOrbit
	{
		Period          0.49856123
		SemiMajorAxis  26565.04724915131
		Eccentricity    0.6102638
		Inclination     67.4684
		AscendingNode   350.7479
		ArgOfPericenter 296.2736
		MeanAnomaly     14.3522
		Epoch           2452345.89857323
	}
        Albedo              10
}

"Cosmos 2286 Rk" "Sol/Earth"
{
	Mesh "satellite.3ds"
	Radius 0.005

	EllipticalOrbit
	{
		Period          0.49058694
		SemiMajorAxis  26281.02151037696
		Eccentricity    0.6122825
		Inclination     67.5267
		AscendingNode   343.0231
		ArgOfPericenter 292.3309
		MeanAnomaly     15.4902
		Epoch           2452344.84315275
	}
        Albedo              10
}

"Ariane H10 Rk" "Sol/Earth"
{
	Mesh "satellite.3ds"
	Radius 0.005

	EllipticalOrbit
	{
		Period          0.44183818
		SemiMajorAxis  24509.83643408346
		Eccentricity    0.7254754
		Inclination     7.2974
		AscendingNode   77.4157
		ArgOfPericenter 229.0214
		MeanAnomaly     40.9535
		Epoch           2452346.40565654
	}
        Albedo              10
}

"94051A" "Sol/Earth"
{
	Mesh "satellite.3ds"
	Radius 0.005

	EllipticalOrbit
	{
		Period          0.49845544
		SemiMajorAxis  26561.288921403728
		Eccentricity    0.7018753
		Inclination     64.9207
		AscendingNode   134.4605
		ArgOfPericenter 259.3036
		MeanAnomaly     21.256
		Epoch           2452342.69694887
	}
        Albedo              10
}

"Molniya3-46 Rk" "Sol/Earth"
{
	Mesh "satellite.3ds"
	Radius 0.005

	EllipticalOrbit
	{
		Period          0.48508286
		SemiMajorAxis  26084.081261969735
		Eccentricity    0.7116349
		Inclination     64.8055
		AscendingNode   117.5781
		ArgOfPericenter 255.3757
		MeanAnomaly     22.209
		Epoch           2452347.36933493
	}
        Albedo              10
}

"Optus B3 PKM" "Sol/Earth"
{
	Mesh "satellite.3ds"
	Radius 0.005

	EllipticalOrbit
	{
		Period          0.47842953
		SemiMajorAxis  25845.02191721287
		Eccentricity    0.7377028
		Inclination     23.7781
		AscendingNode   100.8247
		ArgOfPericenter 20.3645
		MeanAnomaly     357.6791
		Epoch           2452347.4391625
	}
        Albedo              10
}

"ETS 6" "Sol/Earth"
{
	Mesh "satellite.3ds"
	Radius 0.005

	EllipticalOrbit
	{
		Period          0.5984661
		SemiMajorAxis  30004.83833673417
		Eccentricity    0.5062179
		Inclination     11.5667
		AscendingNode   230.5287
		ArgOfPericenter 271.7396
		MeanAnomaly     33.5719
		Epoch           2452345.64709394
	}
        Albedo              10
}

"91015H" "Sol/Earth"
{
	Mesh "satellite.3ds"
	Radius 0.005

	EllipticalOrbit
	{
		Period          0.21056823
		SemiMajorAxis  14954.095817068812
		Eccentricity    0.5316762
		Inclination     6.9524
		AscendingNode   359.8886
		ArgOfPericenter 41.0607
		MeanAnomaly     348.7656
		Epoch           2452346.68679615
	}
        Albedo              10
}

"Ariane Deb" "Sol/Earth"
{
	Mesh "satellite.3ds"
	Radius 0.005

	EllipticalOrbit
	{
		Period          0.2502048
		SemiMajorAxis  16776.26773809235
		Eccentricity    0.6028618
		Inclination     6.5813
		AscendingNode   255.7812
		ArgOfPericenter 260.0933
		MeanAnomaly     31.0925
		Epoch           2452345.38877555
	}
        Albedo              10
}

"92021G" "Sol/Earth"
{
	Mesh "satellite.3ds"
	Radius 0.005

	EllipticalOrbit
	{
		Period          0.4445944
		SemiMajorAxis  24611.660893888176
		Eccentricity    0.7049554
		Inclination     3.3327
		AscendingNode   122.8667
		ArgOfPericenter 293.857
		MeanAnomaly     9.9271
		Epoch           2452346.79600077
	}
        Albedo              10
}

"92021H" "Sol/Earth"
{
	Mesh "satellite.3ds"
	Radius 0.005

	EllipticalOrbit
	{
		Period          0.44557163
		SemiMajorAxis  24647.711968724212
		Eccentricity    0.7012801
		Inclination     3.4583
		AscendingNode   140.9645
		ArgOfPericenter 250.3162
		MeanAnomaly     25.9734
		Epoch           2452341.8030711
	}
        Albedo              10
}

"92021J" "Sol/Earth"
{
	Mesh "satellite.3ds"
	Radius 0.005

	EllipticalOrbit
	{
		Period          0.4468552
		SemiMajorAxis  24695.024307876287
		Eccentricity    0.6967706
		Inclination     3.2869
		AscendingNode   173.9846
		ArgOfPericenter 192.2249
		MeanAnomaly     131.7562
		Epoch           2452345.65979499
	}
        Albedo              10
}

"92021K" "Sol/Earth"
{
	Mesh "satellite.3ds"
	Radius 0.005

	EllipticalOrbit
	{
		Period          0.44721174
		SemiMajorAxis  24708.15900821385
		Eccentricity    0.6964777
		Inclination     3.1013
		AscendingNode   186.8071
		ArgOfPericenter 173.6512
		MeanAnomaly     206.5527
		Epoch           2452346.93728744
	}
        Albedo              10
}

"92021L" "Sol/Earth"
{
	Mesh "satellite.3ds"
	Radius 0.005

	EllipticalOrbit
	{
		Period          0.44541875
		SemiMajorAxis  24642.073513557207
		Eccentricity    0.7073874
		Inclination     3.179
		AscendingNode   164.0302
		ArgOfPericenter 218.7188
		MeanAnomaly     61.3309
		Epoch           2452354.46620629
	}
        Albedo              10
}

"92021M" "Sol/Earth"
{
	Mesh "satellite.3ds"
	Radius 0.005

	EllipticalOrbit
	{
		Period          0.44569597
		SemiMajorAxis  24652.296997134403
		Eccentricity    0.7015699
		Inclination     3.4444
		AscendingNode   138.4953
		ArgOfPericenter 256.7188
		MeanAnomaly     22.3813
		Epoch           2452347.50886477
	}
        Albedo              10
}

"92021P" "Sol/Earth"
{
	Mesh "satellite.3ds"
	Radius 0.005

	EllipticalOrbit
	{
		Period          0.45144168
		SemiMajorAxis  24863.715135220216
		Eccentricity    0.6882625
		Inclination     3.9019
		AscendingNode   251.9678
		ArgOfPericenter 27.972
		MeanAnomaly     356.0895
		Epoch           2452346.71590807
	}
        Albedo              10
}

"92021Q" "Sol/Earth"
{
	Mesh "satellite.3ds"
	Radius 0.005

	EllipticalOrbit
	{
		Period          0.44614407
		SemiMajorAxis  24668.818026614787
		Eccentricity    0.698373
		Inclination     3.3366
		AscendingNode   167.2602
		ArgOfPericenter 207.3655
		MeanAnomaly     84.7675
		Epoch           2452345.53401489
	}
        Albedo              10
}

"Ariane Deb" "Sol/Earth"
{
	Mesh "satellite.3ds"
	Radius 0.005

	EllipticalOrbit
	{
		Period          0.22450218
		SemiMajorAxis  15606.731494406158
		Eccentricity    0.5649057
		Inclination     7.2253
		AscendingNode   53.3572
		ArgOfPericenter 296.7824
		MeanAnomaly     16.9594
		Epoch           2452347.58928411
	}
        Albedo              10
}

"94056C" "Sol/Earth"
{
	Mesh "satellite.3ds"
	Radius 0.005

	EllipticalOrbit
	{
		Period          0.58722097
		SemiMajorAxis  29627.79228330972
		Eccentricity    0.5170872
		Inclination     11.9023
		AscendingNode   208.0364
		ArgOfPericenter 312.7053
		MeanAnomaly     14.0009
		Epoch           2452342.8790632
	}
        Albedo              10
}

"Telstar 402" "Sol/Earth"
{
	Mesh "satellite.3ds"
	Radius 0.005

	EllipticalOrbit
	{
		Period          0.23740199
		SemiMajorAxis  16198.985921382819
		Eccentricity    0.5882351
		Inclination     7.1125
		AscendingNode   121.0268
		ArgOfPericenter 227.746
		MeanAnomaly     64.5234
		Epoch           2452345.58927175
	}
        Albedo              10
}

"85118P" "Sol/Earth"
{
	Mesh "satellite.3ds"
	Radius 0.005

	EllipticalOrbit
	{
		Period          0.23230267
		SemiMajorAxis  15966.18109834327
		Eccentricity    0.5683892
		Inclination     65.3
		AscendingNode   71.8596
		ArgOfPericenter 42.2339
		MeanAnomaly     349.7784
		Epoch           2452346.02553591
	}
        Albedo              10
}

"85118Q" "Sol/Earth"
{
	Mesh "satellite.3ds"
	Radius 0.005

	EllipticalOrbit
	{
		Period          0.23587243
		SemiMajorAxis  16129.331927100084
		Eccentricity    0.5732844
		Inclination     65.4027
		AscendingNode   170.7137
		ArgOfPericenter 11.1357
		MeanAnomaly     357.527
		Epoch           2452346.25528613
	}
        Albedo              10
}

"85118R" "Sol/Earth"
{
	Mesh "satellite.3ds"
	Radius 0.005

	EllipticalOrbit
	{
		Period          0.22972807
		SemiMajorAxis  15847.994130032563
		Eccentricity    0.5553171
		Inclination     64.9931
		AscendingNode   137.152
		ArgOfPericenter 30.2742
		MeanAnomaly     352.4947
		Epoch           2452345.86994219
	}
        Albedo              10
}

"85118U" "Sol/Earth"
{
	Mesh "satellite.3ds"
	Radius 0.005

	EllipticalOrbit
	{
		Period          0.216326
		SemiMajorAxis  15225.47088398544
		Eccentricity    0.5284261
		Inclination     66.1202
		AscendingNode   129.0894
		ArgOfPericenter 312.1289
		MeanAnomaly     12.6302
		Epoch           2452337.38021889
	}
        Albedo              10
}

